NORAD_CAT_ID,OBJECT_NAME,OBJECT_TYPE,EPOCH,MEAN_MOTION,ECCENTRICITY,INCLINATION,RA_OF_ASC_NODE,ARG_OF_PERICENTER,MEAN_ANOMALY,BSTAR,MEAN_MOTION_DOT,MEAN_MOTION_DDOT,TLE_LINE0,TLE_LINE1,TLE_LINE2,SEMIMAJOR_AXIS,PERIOD,APOGEE,PERIGEE,DECAYED
53830.0,STARLINK-4761,PAYLOAD,2022-10-04 22:00:00,15.73191624,9.82e-05,53.2156,180.2346,97.7314,175.4458,-5.7387e-05,-8.662e-05,0.0,0 STARLINK-4761,1 53830U 22114N   22277.91667824 -.00008662  00000-0 -57387-4 0  9990,2 53830  53.2156 180.2346 0000982  97.7314 175.4458 15.73191624  1304,6727.919,91.534,350.445,349.12300000000016,0.0
53830.0,STARLINK-4761,PAYLOAD,2022-10-05 08:00:01,15.73204832,8.950000000000001e-05,53.2153,178.1729,92.4315,21.9185,-0.00026414,-0.00037531,0.0,0 STARLINK-4761,1 53830U 22114N   22278.33334491 -.00037531  00000-0 -26414-3 0  9991,2 53830  53.2153 178.1729 0000895  92.4315  21.9185 15.73204832  3140,6727.880999999999,91.533,350.349,349.144,0.0
53830.0,STARLINK-4761,PAYLOAD,2022-10-05 14:00:01,15.7316315,0.0001026,53.2154,176.9346,105.9275,345.1761,0.00012421,0.0001682,0.0,0 STARLINK-4761,1 53830U 22114N   22278.58335648  .00016820  00000-0  12421-3 0  9992,2 53830  53.2154 176.9346 0001026 105.9275 345.1761 15.73163150  1308,6728.0,91.535,350.556,349.175,0.0
53830.0,STARLINK-4761,PAYLOAD,2022-10-05 22:00:00,15.73201804,0.0001097,53.2156,175.2866,101.7342,78.1895,-0.00024365,-0.00034675,0.0,0 STARLINK-4761,1 53830U 22114N   22278.91667824 -.00034675  00000-0 -24365-3 0  9993,2 53830  53.2156 175.2866 0001097 101.7342  78.1895 15.73201804  1306,6727.89,91.533,350.49300000000005,349.017,0.0
53830.0,STARLINK-4761,PAYLOAD,2022-10-06 06:00:00,15.73191675,8.759999999999999e-05,53.2154,173.6377,96.5502,172.2969,0.00018458,0.00025354,0.0,0 STARLINK-4761,1 53830U 22114N   22279.25001157  .00025354  00000-0  18458-3 0  9990,2 53830  53.2154 173.6377 0000876  96.5502 172.2969 15.73191675  3287,6727.919,91.534,350.37300000000016,349.195,0.0
53830.0,STARLINK-4761,PAYLOAD,2022-10-06 14:00:01,15.73178159,0.0001104,53.2158,171.9861,108.5414,249.246,0.00042524,0.00059426,0.0,0 STARLINK-4761,1 53830U 22114N   22279.58334491  .00059426  00000-0  42524-3 0  9994,2 53830  53.2158 171.9861 0001104 108.5414 249.2460 15.73178159  1305,6727.956999999999,91.534,350.565,349.08,0.0
53830.0,STARLINK-4761,PAYLOAD,2022-10-06 22:42:55,15.73171679,0.0001266,53.2161,170.1912,97.9944,157.4991,0.00030781,0.00042747,0.0,0 STARLINK-4761,1 53830U 22114N   22279.94646991  .00042747  00000-0  30781-3 0  9995,2 53830  53.2161 170.1912 0001266  97.9944 157.4991 15.73171679  1304,6727.976,91.535,350.6930000000001,348.98900000000015,0.0
53830.0,STARLINK-4761,PAYLOAD,2022-10-07 00:00:00,15.73184829,0.0001274,53.2162,169.9268,95.6829,103.212,0.00017013,0.00023307,0.0,0 STARLINK-4761,1 53830U 22114N   22280.00001157  .00023307  00000-0  17013-3 0  9997,2 53830  53.2162 169.9268 0001274  95.6829 103.2120 15.73184829  3408,6727.938,91.534,350.661,348.946,0.0
53830.0,STARLINK-4761,PAYLOAD,2022-10-07 14:00:01,15.73187622,0.0001165999999999,53.2167,167.0398,100.2457,164.2604,0.00036863,0.00051404,0.0,0 STARLINK-4761,1 53830U 22114N   22280.58334491  .00051404  00000-0  36863-3 0  9993,2 53830  53.2167 167.0398 0001166 100.2457 164.2604 15.73187622  1301,6727.93,91.534,350.58,349.011,0.0
53830.0,STARLINK-4761,PAYLOAD,2022-10-07 22:00:00,15.73227778,0.0001304,53.2157,165.3901,102.7721,250.745,-0.00023892,-0.00034055,0.0,0 STARLINK-4761,1 53830U 22114N   22280.91667824 -.00034055  00000-0 -23892-3 0  9992,2 53830  53.2157 165.3901 0001304 102.7721 250.7450 15.73227778  1303,6727.816,91.532,350.55800000000005,348.80400000000014,0.0
53830.0,STARLINK-4761,PAYLOAD,2022-10-08 06:00:00,15.73204363,0.0001049,53.2154,163.7408,100.6688,341.7795,-0.00046091,-0.00064819,0.0,0 STARLINK-4761,1 53830U 22114N   22281.25001157 -.00064819  00000-0 -46091-3 0  9998,2 53830  53.2154 163.7408 0001049 100.6688 341.7795 15.73204363  3602,6727.8830000000025,91.533,350.45300000000015,349.042,0.0
53830.0,STARLINK-4761,PAYLOAD,2022-10-08 14:00:01,15.73103672,0.0001082,53.2157,162.0895,114.7436,56.61600000000001,0.00079358,0.00111783,0.0,0 STARLINK-4761,1 53830U 22114N   22281.58334491  .00111783  00000-0  79358-3 0  9997,2 53830  53.2157 162.0895 0001082 114.7436  56.6160 15.73103672  1305,6728.17,91.539,350.76300000000015,349.307,0.0
53830.0,STARLINK-4761,PAYLOAD,2022-10-08 22:00:00,15.73214369,0.0001296999999999,53.2174,160.4436,118.6521,141.5923,-0.00011197,-0.00016313,0.0,0 STARLINK-4761,1 53830U 22114N   22281.91667824 -.00016313  00000-0 -11197-3 0  9995,2 53830  53.2174 160.4436 0001297 118.6521 141.5923 15.73214369  3706,6727.854,91.532,350.592,348.847,0.0
53830.0,STARLINK-4761,PAYLOAD,2022-10-09 06:00:00,15.73256558,0.0001095999999999,53.2153,158.7923,99.904,249.2886,-0.00021315,-0.00030497,0.0,0 STARLINK-4761,1 53830U 22114N   22282.25001157 -.00030497  00000-0 -21315-3 0  9996,2 53830  53.2153 158.7923 0001096  99.9040 249.2886 15.73256558  3753,6727.734,91.53,350.336,348.862,0.0
53830.0,STARLINK-4761,PAYLOAD,2022-10-09 14:00:01,15.73230822,0.0001153,53.2153,157.141,115.9906,322.1976,8.567899999999999e-05,0.00011437,0.0,0 STARLINK-4761,1 53830U 22114N   22282.58334491  .00011437  00000-0  85679-4 0  9997,2 53830  53.2153 157.1410 0001153 115.9906 322.1976 15.73230822  1307,6727.807,91.531,350.4480000000001,348.897,0.0
53830.0,STARLINK-4761,PAYLOAD,2022-10-09 22:00:00,15.73215942,0.0001002999999999,53.215,155.4933,106.3753,60.7901,7.3403e-05,9.701e-05,0.0,0 STARLINK-4761,1 53830U 22114N   22282.91667824  .00009701  00000-0  73403-4 0  9996,2 53830  53.2150 155.4933 0001003 106.3753  60.7901 15.73215942  3865,6727.85,91.532,350.39,349.04,0.0
53830.0,STARLINK-4761,PAYLOAD,2022-10-10 14:00:01,15.73227851,0.0001117,53.2151,152.1919,118.707,226.3691,8.2787e-05,0.00011028,0.0,0 STARLINK-4761,1 53830U 22114N   22283.58334491  .00011028  00000-0  82787-4 0  9991,2 53830  53.2151 152.1919 0001117 118.7070 226.3691 15.73227851  1304,6727.816,91.532,350.432,348.92900000000014,0.0
53830.0,STARLINK-4761,PAYLOAD,2022-10-10 22:00:01,15.73293858,9.8e-05,53.2165,150.5459,110.392,323.7167,-0.0032465,-0.00435173,0.0,0 STARLINK-4761,1 53830U 22114N   22283.91668981 -.00435173  00000-0 -32465-2 0  9991,2 53830  53.2165 150.5459 0000980 110.3920 323.7167 15.73293858  4021,6727.628000000002,91.528,350.152,348.833,0.0
53830.0,STARLINK-4761,PAYLOAD,2022-10-11 06:00:00,15.73158867,9.14e-05,53.2156,148.8956,99.6764,63.22,-0.00030799,-0.00043543,0.0,0 STARLINK-4761,1 53830U 22114N   22284.25001157 -.00043543  00000-0 -30799-3 0  9990,2 53830  53.2156 148.8956 0000914  99.6764  63.2200 15.73158867  4074,6728.012,91.536,350.492,349.26300000000015,0.0
53830.0,STARLINK-4761,PAYLOAD,2022-10-11 14:00:01,15.73137332,0.0001184,53.2169,147.2456,107.4613,144.2961,0.00076043,0.00107183,0.0,0 STARLINK-4761,1 53830U 22114N   22284.58334491  .00107183  00000-0  76043-3 0  9997,2 53830  53.2169 147.2456 0001184 107.4613 144.2961 15.73137332  4121,6728.074000000001,91.537,350.735,349.142,0.0
53830.0,STARLINK-4761,PAYLOAD,2022-10-11 22:00:00,15.73169133,0.000121,53.2142,145.5963,103.3082,237.3017,-6.1303e-05,-9.202e-05,0.0,0 STARLINK-4761,1 53830U 22114N   22284.91667824 -.00009202  00000-0 -61303-4 0  9992,2 53830  53.2142 145.5963 0001210 103.3082 237.3017 15.73169133  1308,6727.983,91.535,350.662,349.034,0.0
53830.0,STARLINK-4761,PAYLOAD,2022-10-12 06:00:00,15.73238178,0.0001179,53.2153,143.9476,98.7372,330.8040000000001,-1.2579e-05,-2.388e-05,0.0,0 STARLINK-4761,1 53830U 22114N   22285.25001157 -.00002388  00000-0 -12579-4 0  9990,2 53830  53.2153 143.9476 0001179  98.7372 330.8040 15.73238178  4229,6727.786,91.531,350.445,348.858,0.0
53830.0,STARLINK-4761,PAYLOAD,2022-10-12 14:00:01,15.73213038,0.0001254,53.2166,142.2968,104.5218,54.0016,-0.00010293,-0.00015047,0.0,0 STARLINK-4761,1 53830U 22114N   22285.58334491 -.00015047  00000-0 -10293-3 0  9992,2 53830  53.2166 142.2968 0001254 104.5218  54.0016 15.73213038  1302,6727.858,91.532,350.56699999999995,348.879,0.0
53830.0,STARLINK-4761,PAYLOAD,2022-10-12 22:00:00,15.73204206,0.000128,53.2175,140.6499,97.3683,150.092,-6.5984e-07,-7.13e-06,0.0,0 STARLINK-4761,1 53830U 22114N   22285.91667824 -.00000713  00000-0 -65984-6 0  9992,2 53830  53.2175 140.6499 0001280  97.3683 150.0920 15.73204206  4331,6727.8830000000025,91.533,350.6090000000001,348.88699999999994,0.0
53830.0,STARLINK-4761,PAYLOAD,2022-10-13 14:00:01,15.73409562,0.0001264,53.2166,137.3481,104.1151,321.0984,-0.00212,-0.002907,0.0,0 STARLINK-4761,1 53830U 22114N   22286.58334491 -.00290700  00000-0 -21200-2 0  9993,2 53830  53.2166 137.3481 0001264 104.1151 321.0984 15.73409562  1300,6727.2980000000025,91.521,350.01300000000015,348.31199999999984,0.0
53830.0,STARLINK-4761,PAYLOAD,2022-10-13 22:00:00,15.73254799,0.0001205,53.2172,135.7009,97.1827,57.057,-0.00058962,-0.00082752,0.0,0 STARLINK-4761,1 53830U 22114N   22286.91667824 -.00082752  00000-0 -58962-3 0  9991,2 53830  53.2172 135.7009 0001205  97.1827  57.0570 15.73254799  1308,6727.739000000001,91.53,350.415,348.793,0.0
53830.0,STARLINK-4761,PAYLOAD,2022-10-14 08:00:01,15.73271915,0.0001286,53.2158,133.6366,105.0265,250.7461,-0.0039406,-0.0052226,0.0,0 STARLINK-4761,1 53830U 22114N   22287.33335648 -.00522260  00000-0 -39406-2 0  9998,2 53830  53.2158 133.6366 0001286 105.0265 250.7461 15.73271915  4559,6727.69,91.529,350.42,348.69,0.0
53830.0,STARLINK-4761,PAYLOAD,2022-10-14 14:00:01,15.72850486,0.0001294,53.217,132.3992,98.5448,233.7694,0.0039544,0.00586127,0.0,0 STARLINK-4761,1 53830U 22114N   22287.58334491  .00586127  00000-0  39544-2 0  9993,2 53830  53.2170 132.3992 0001294  98.5448 233.7694 15.72850486  1306,6728.892,91.554,351.62800000000016,349.886,0.0
53830.0,STARLINK-4761,PAYLOAD,2022-10-14 16:00:00,15.73162509,0.0001411,53.2171,131.9876,104.4135,339.9706,0.00051246,0.00071801,0.0,0 STARLINK-4761,1 53830U 22114N   22287.66667824  .00071801  00000-0  51246-3 0  9993,2 53830  53.2171 131.9876 0001411 104.4135 339.9706 15.73162509  4617,6728.002,91.535,350.816,348.918,0.0
